NAVSTAR 48 (USA 151)    
1 26407U 00040A   26191.26190744  .00000110  00000+0  00000+0 0  9995
2 26407  54.8491 214.2457 0120597 302.6821  81.8231  2.00557788190413
NAVSTAR 51 (USA 166)    
1 27663U 03005A   26191.15416856  .00000110  00000+0  00000+0 0  9997
2 27663  54.8796 214.0562 0148192  53.1533  29.7363  2.00559273171776
NAVSTAR 54 (USA 177)    
1 28190U 04009A   26191.29724102 -.00000012  00000+0  00000+0 0  9991
2 28190  54.8105 274.7528 0117019 174.1119 164.7266  2.00553861163409
NAVSTAR 56 (USA 180)    
1 28474U 04045A   26191.73656659 -.00000082  00000+0  00000+0 0  9993
2 28474  55.1211 323.9480 0170102 316.9521  44.1361  2.00556823158902
NAVSTAR 57 (USA 183)    
1 28874U 05038A   26191.29576271 -.00000006  00000+0  00000+0 0  9998
2 28874  54.8594 272.2441 0128168 296.3525  70.9409  2.00564004152307
INMARSAT 4-F2           
1 28899U 05044A   26191.80922647 -.00000256  00000+0  00000+0 0  9998
2 28899   5.1237  43.6506 0002824  59.1327 260.7612  1.00271604 75752
NAVSTAR 58 (USA 190)    
1 29486U 06042A   26191.67072875  .00000045  00000+0  00000+0 0  9999
2 29486  54.7127 150.4066 0107055  55.0182 121.8872  2.00568451144861
NAVSTAR 59 (USA 192)    
1 29601U 06052A   26191.35354650  .00000111  00000+0  00000+0 0  9992
2 29601  54.9327 213.0878 0084807  90.9879 270.0479  2.00559360143870
NAVSTAR 60 (USA 196)    
1 32260U 07047A   26190.16326571 -.00000040  00000+0  00000+0 0  9993
2 32260  54.1110  79.1599 0167587  87.8540 274.1065  2.00554162137251
COSMOS 2433 [GLONASS-M] 
1 32275U 07052A   26191.37850435 -.00000061  00000+0  00000+0 0  9993
2 32275  65.5627 315.1539 0003332 202.4667 157.5232  2.13104289145552
COSMOS 2432 [GLONASS-M] 
1 32276U 07052B   26191.46408837 -.00000061  00000+0  00000+0 0  9999
2 32276  65.5786 315.2794 0007450 323.8331  45.6094  2.13103217145580
NAVSTAR 61 (USA 199)    
1 32384U 07062A   26191.49141911 -.00000007  00000+0  00000+0 0  9990
2 32384  55.0132 273.2150 0036023 167.1675 199.6275  2.00561317135985
COSMOS 2434 [GLONASS-M] 
1 32393U 07065A   26191.17907138  .00000121  00000+0  00000+0 0  9995
2 32393  64.3199 191.1401 0001266 327.2015 129.5148  2.13101374144265
COSMOS 2436 [GLONASS-M] 
1 32395U 07065C   26191.45835044  .00000119  00000+0  00000+0 0  9991
2 32395  64.3284 191.2030 0017288 353.5957  89.5862  2.13100097144224
NAVSTAR 62 (USA 201)    
1 32711U 08012A   26191.56819272  .00000043  00000+0  00000+0 0  9999
2 32711  54.4997 148.9907 0211641 248.1071 109.6029  2.00572982134224
NAVSTAR 64 (USA 206)    
1 35752U 09043A   26191.23487374 -.00000053  00000+0  00000+0 0  9992
2 35752  56.2247  26.5474 0053760  84.1723  43.1557  2.00552975123820
COSMOS 2456 [GLONASS-M] 
1 36111U 09070A   26190.63071153 -.00000025  00000+0  00000+0 0  9998
2 36111  65.0240  70.2070 0003794 337.6713 216.6373  2.13103839128908
COSMOS 2457 [GLONASS-M] 
1 36112U 09070B   26190.44876384 -.00000025  00000+0  00000+0 0  9997
2 36112  65.0094  70.0567 0003852 122.8447  59.0824  2.13101280128906
COSMOS 2460 [GLONASS-M] 
1 36402U 10007C   26191.61789161 -.00000061  00000+0  00000+0 0  9997
2 36402  65.4060 313.6745 0001799 138.8574 221.9345  2.13101688127230
NAVSTAR 65 (USA 213)    
1 36585U 10022A   26191.63630903  .00000111  00000+0  00000+0 0  9992
2 36585  54.2689 207.6174 0126638  66.1516 110.6690  2.00563498118067
BEIDOU-2 IGSO-1         
1 36828U 10036A   26188.62304566 -.00000058  00000+0  00000+0 0  9996
2 36828  54.3062 162.7756 0059224 225.1869 229.2421  1.00266308 58302
BEIDOU-2 G4             
1 37210U 10057A   26191.81243316 -.00000108  00000+0  00000+0 0  9991
2 37210   3.7017  68.8013 0005496 184.9146 127.4346  1.00270168 57527
BEIDOU-2 IGSO-2         
1 37256U 10068A   26191.65946204 -.00000197  00000+0  00000+0 0  9999
2 37256  47.5044 271.5406 0056906 213.4330 149.3314  1.00275347 57035
BEIDOU-2 IGSO-3         
1 37384U 11013A   26190.51857615 -.00000172  00000+0  00000+0 0  9996
2 37384  62.4382  39.9419 0035198 183.2390 357.7550  1.00261852 55882
GSAT-8                  
1 37605U 11022A   26191.86294505  .00000091  00000+0  00000+0 0  9993
2 37605   2.1894  81.5367 0002670 165.7918  47.1851  1.00271718 53459
BEIDOU-2 IGSO-4         
1 37763U 11038A   26190.90650205  .00000037  00000+0  00000+0 0  9992
2 37763  54.6042 165.4715 0160178 231.4223 311.4635  1.00280644 54870
GSAT0101 (GALILEO-PFM)  
1 37846U 11060A   26189.55204449 -.00000074  00000+0  00000+0 0  9995
2 37846  56.9869 341.1826 0002415  60.6868 299.3373  1.70475585 91484
GSAT0102 (GALILEO-FM2)  
1 37847U 11060B   26189.47708995 -.00000074  00000+0  00000+0 0  9992
2 37847  56.9877 341.1851 0002423  11.7755 347.8886  1.70475862 91489
COSMOS 2476 [GLONASS-M] 
1 37867U 11064A   26191.04288087 -.00000024  00000+0  00000+0 0  9994
2 37867  65.2823  72.1003 0022247 236.3907 182.4431  2.13103828114253
COSMOS 2477 [GLONASS-M] 
1 37868U 11064B   26191.43586571 -.00000023  00000+0  00000+0 0  9996
2 37868  65.2891  72.1667 0019275 237.3049 303.2879  2.13103084114253
COSMOS 2475 [GLONASS-M] 
1 37869U 11064C   26189.68046086 -.00000024  00000+0  00000+0 0  9994
2 37869  65.2949  72.2477 0024985 251.6286 337.3064  2.13101962114228
