OBJECT_NAME,OBJECT_ID,EPOCH,MEAN_MOTION,ECCENTRICITY,INCLINATION,RA_OF_ASC_NODE,ARG_OF_PERICENTER,MEAN_ANOMALY,EPHEMERIS_TYPE,CLASSIFICATION_TYPE,NORAD_CAT_ID,ELEMENT_SET_NO,REV_AT_EPOCH,BSTAR,MEAN_MOTION_DOT,MEAN_MOTION_DDOT
GPS BIIR-5  (PRN 22),2000-040A,2026-07-10T06:17:08.802816,2.00557788,.01205976,54.8491,214.2457,302.6821,81.8231,0,U,26407,999,19041,0,.11E-5,0
GPS BIIR-8  (PRN 16),2003-005A,2026-07-10T03:42:00.163584,2.00559273,.01481924,54.8796,214.0562,53.1533,29.7363,0,U,27663,999,17177,0,.11E-5,0
GPS BIIR-11 (PRN 19),2004-009A,2026-07-10T07:08:01.624128,2.00553861,.01170199,54.8105,274.7528,174.1119,164.7266,0,U,28190,999,16340,0,-.12E-6,0
GPS BIIR-13 (PRN 02),2004-045A,2026-07-10T17:40:39.353376,2.00556823,.0170102,55.1211,323.9480,316.9521,44.1361,0,U,28474,999,15890,0,-.82E-6,0
GPS BIIRM-1 (PRN 17),2005-038A,2026-07-10T07:05:53.898144,2.00564004,.01281687,54.8594,272.2441,296.3525,70.9409,0,U,28874,999,15230,0,-.6E-7,0
INMARSAT 4-F2 (SOUTHPAN/PRN 122),2005-044A,2026-07-10T19:25:17.167008,1.00271604,.0002824,5.1237,43.6506,59.1327,260.7612,0,U,28899,999,7575,0,-.256E-5,0
GPS BIIRM-2 (PRN 31),2006-042A,2026-07-10T16:05:50.964000,2.00568451,.0107055,54.7127,150.4066,55.0182,121.8872,0,U,29486,999,14486,0,.45E-6,0
GPS BIIRM-3 (PRN 12),2006-052A,2026-07-10T08:29:06.417600,2.00559360,.00848078,54.9327,213.0878,90.9879,270.0479,0,U,29601,999,14387,0,.111E-5,0
GPS BIIRM-4 (PRN 15),2007-047A,2026-07-09T03:55:06.157344,2.00554162,.01675879,54.1110,79.1599,87.8540,274.1065,0,U,32260,999,13725,0,-.4E-6,0
COSMOS 2433 (720),2007-052A,2026-07-10T09:05:02.775840,2.13104289,.0003332,65.5627,315.1539,202.4667,157.5232,0,U,32275,999,14555,0,-.61E-6,0
COSMOS 2432 (719),2007-052B,2026-07-10T11:08:17.235168,2.13103217,.000745,65.5786,315.2794,323.8331,45.6094,0,U,32276,999,14558,0,-.61E-6,0
GPS BIIRM-5 (PRN 29),2007-062A,2026-07-10T11:47:38.611104,2.00561317,.0036023,55.0132,273.2150,167.1675,199.6275,0,U,32384,999,13598,0,-.7E-7,0
COSMOS 2434 (721),2007-065A,2026-07-10T04:17:51.767232,2.13101374,.00012665,64.3199,191.1401,327.2015,129.5148,0,U,32393,999,14426,0,.121E-5,0
COSMOS 2436 (723),2007-065C,2026-07-10T11:00:01.478016,2.13100097,.00172885,64.3284,191.2030,353.5957,89.5862,0,U,32395,999,14422,0,.119E-5,0
GPS BIIRM-6 (PRN 07),2008-012A,2026-07-10T13:38:11.851008,2.00572982,.0211641,54.4997,148.9907,248.1071,109.6029,0,U,32711,999,13422,0,.43E-6,0
GPS BIIRM-8 (PRN 05),2009-043A,2026-07-10T05:38:13.091136,2.00552975,.00537608,56.2247,26.5474,84.1723,43.1557,0,U,35752,999,12382,0,-.53E-6,0
COSMOS 2456 (730),2009-070A,2026-07-09T15:08:13.476192,2.13103839,.0003794,65.0240,70.2070,337.6713,216.6373,0,U,36111,999,12890,0,-.25E-6,0
COSMOS 2457 (733),2009-070B,2026-07-09T10:46:13.195776,2.13101280,.0003852,65.0094,70.0567,122.8447,59.0824,0,U,36112,999,12890,0,-.25E-6,0
COSMOS 2460 (732),2010-007C,2026-07-10T14:49:45.835104,2.13101688,.0001799,65.4060,313.6745,138.8574,221.9345,0,U,36402,999,12723,0,-.61E-6,0
GPS BIIF-1  (PRN 25),2010-022A,2026-07-10T15:16:17.100192,2.00563498,.0126638,54.2689,207.6174,66.1516,110.6690,0,U,36585,999,11806,0,.111E-5,0
BEIDOU-2 IGSO-1 (C06),2010-036A,2026-07-07T14:57:11.145024,1.00266308,.0059224,54.3062,162.7756,225.1869,229.2421,0,U,36828,999,5830,0,-.58E-6,0
BEIDOU-2 G4 (C04),2010-057A,2026-07-10T19:29:54.225024,1.00270168,.0005496,3.7017,68.8013,184.9146,127.4346,0,U,37210,999,5752,0,-.108E-5,0
BEIDOU-2 IGSO-2 (C07),2010-068A,2026-07-10T15:49:37.520256,1.00275347,.0056906,47.5044,271.5406,213.4330,149.3314,0,U,37256,999,5703,0,-.197E-5,0
BEIDOU-2 IGSO-3 (C08),2011-013A,2026-07-09T12:26:44.979360,1.00261852,.00351984,62.4382,39.9419,183.2390,357.7550,0,U,37384,999,5588,0,-.172E-5,0
GSAT-8 (GAGAN/PRN 127),2011-022A,2026-07-10T20:42:38.452320,1.00271718,.000267,2.1894,81.5367,165.7918,47.1851,0,U,37605,999,5345,0,.91E-6,0
BEIDOU-2 IGSO-4 (C09),2011-038A,2026-07-09T21:45:21.777120,1.00280644,.01601787,54.6042,165.4715,231.4223,311.4635,0,U,37763,999,5487,0,.37E-6,0
GSAT0101 (GALILEO-PFM),2011-060A,2026-07-08T13:14:56.643936,1.70475585,.0002415,56.9869,341.1826,60.6868,299.3373,0,U,37846,999,9148,0,-.74E-6,0
GSAT0102 (GALILEO-FM2),2011-060B,2026-07-08T11:27:00.571680,1.70475862,.00024239,56.9877,341.1851,11.7755,347.8886,0,U,37847,999,9148,0,-.74E-6,0
COSMOS 2476 (744),2011-064A,2026-07-10T01:01:44.907168,2.13103828,.0022247,65.2823,72.1003,236.3907,182.4431,0,U,37867,999,11425,0,-.24E-6,0
COSMOS 2477 (745),2011-064B,2026-07-10T10:27:38.797344,2.13103084,.0019275,65.2891,72.1667,237.3049,303.2879,0,U,37868,999,11425,0,-.23E-6,0
COSMOS 2475 (743),2011-064C,2026-07-08T16:19:51.818304,2.13101962,.0024985,65.2949,72.2477,251.6286,337.3064,0,U,37869,999,11422,0,-.24E-6,0
